NORAD_CAT_ID,OBJECT_NAME,OBJECT_TYPE,EPOCH,MEAN_MOTION,ECCENTRICITY,INCLINATION,RA_OF_ASC_NODE,ARG_OF_PERICENTER,MEAN_ANOMALY,BSTAR,MEAN_MOTION_DOT,MEAN_MOTION_DDOT,TLE_LINE0,TLE_LINE1,TLE_LINE2,SEMIMAJOR_AXIS,PERIOD,APOGEE,PERIGEE,DECAYED
55412.0,STARLINK-5033,PAYLOAD,2024-05-24 13:35:19,14.98328543,0.0002919,69.9997,293.6173,261.5875,98.4953,1.9184e-05,1.36e-06,0.0,0 STARLINK-5033,1 55412U 23014X   24145.56620204  .00000136  00000-0  19184-4 0  9995,2 55412  69.9997 293.6173 0002919 261.5875  98.4953 14.98328543 73582,6950.197,96.107,574.091,570.034,0.0
55412.0,STARLINK-5033,PAYLOAD,2024-05-24 19:59:52,14.98329891,0.0002898,69.9996,292.9437,262.0745,98.0085,3.2533e-05,2.95e-06,0.0,0 STARLINK-5033,1 55412U 23014X   24145.83324080  .00000295  00000-0  32533-4 0  9997,2 55412  69.9996 292.9437 0002898 262.0745  98.0085 14.98329891 73628,6950.193,96.107,574.072,570.044,0.0
55412.0,STARLINK-5033,PAYLOAD,2024-05-25 12:01:12,14.98332214,0.0002795,69.9998,291.26,265.1085,94.9755,-1.6332e-05,-2.88e-06,0.0,0 STARLINK-5033,1 55412U 23014X   24146.50084014 -.00000288  00000-0 -16332-4 0  9995,2 55412  69.9998 291.2600 0002795 265.1085  94.9755 14.98332214 72789,6950.186,96.107,573.994,570.108,0.0
55412.0,STARLINK-5033,PAYLOAD,2024-05-25 13:37:20,14.98332159,0.0002798,69.9998,291.0917,265.0722,95.0117,-1.6423e-05,-2.89e-06,0.0,0 STARLINK-5033,1 55412U 23014X   24146.56760005 -.00000289  00000-0 -16423-4 0  9994,2 55412  69.9998 291.0917 0002798 265.0722  95.0117 14.98332159 73736,6950.186,96.107,573.996,570.107,0.0
55412.0,STARLINK-5033,PAYLOAD,2024-05-26 12:03:13,14.98330181,0.0002889,69.9995,288.734,269.7949,90.2879,-2.1674e-06,-1.19e-06,0.0,0 STARLINK-5033,1 55412U 23014X   24147.50224011 -.00000119  00000-0 -21674-5 0  9998,2 55412  69.9995 288.7340 0002889 269.7949  90.2879 14.98330181 72935,6950.192,96.107,574.065,570.049,0.0
55412.0,STARLINK-5033,PAYLOAD,2024-05-26 13:39:21,14.98329955,0.00029,69.9995,288.5657,269.7674,90.3153,-5.3055e-06,-1.56e-06,0.0,0 STARLINK-5033,1 55412U 23014X   24147.56900030 -.00000156  00000-0 -53055-5 0  9995,2 55412  69.9995 288.5657 0002900 269.7674  90.3153 14.98329955 73881,6950.193,96.107,574.074,570.042,0.0
55412.0,STARLINK-5033,PAYLOAD,2024-05-26 20:03:53,14.98329288,0.000293,69.9995,287.8923,269.918,90.1643,-1.379e-05,-2.58e-06,0.0,0 STARLINK-5033,1 55412U 23014X   24147.83604099 -.00000258  00000-0 -13790-4 0  9995,2 55412  69.9995 287.8923 0002930 269.9180  90.1643 14.98329288 73922,6950.195,96.107,574.096,570.024,0.0
55412.0,STARLINK-5033,PAYLOAD,2024-05-27 12:05:14,14.98329696,0.0002925,69.9996,286.2091,264.5394,95.5431,-5.5459e-06,-1.59e-06,0.0,0 STARLINK-5033,1 55412U 23014X   24148.50364001 -.00000159  00000-0 -55459-5 0  9995,2 55412  69.9996 286.2091 0002925 264.5394  95.5431 14.98329696 73088,6950.194,96.107,574.092,570.026,0.0
55412.0,STARLINK-5033,PAYLOAD,2024-05-27 15:17:30,14.98329687,0.0002929,69.9996,285.8725,264.5674,95.5151,-5.2566e-06,-1.56e-06,0.0,0 STARLINK-5033,1 55412U 23014X   24148.63716000 -.00000156  00000-0 -52566-5 0  9992,2 55412  69.9996 285.8725 0002929 264.5674  95.5151 14.98329687 74048,6950.194,96.107,574.095,570.023,0.0
55412.0,STARLINK-5033,PAYLOAD,2024-05-27 18:29:46,14.98328889,0.000295,69.9996,285.5357,265.3756,94.7066,-1.4693e-05,-2.68e-06,0.0,0 STARLINK-5033,1 55412U 23014X   24148.77068087 -.00000268  00000-0 -14693-4 0  9994,2 55412  69.9996 285.5357 0002950 265.3756  94.7066 14.98328889 74061,6950.196,96.107,574.112,570.011,0.0
55412.0,STARLINK-5033,PAYLOAD,2024-05-28 12:07:15,14.98329728,0.0003031,69.9994,283.6839,266.4163,93.6649,1.1905e-05,4.9e-07,0.0,0 STARLINK-5033,1 55412U 23014X   24149.50503943  .00000049  00000-0  11905-4 0  9999,2 55412  69.9994 283.6839 0003031 266.4163  93.6649 14.98329728 73234,6950.194,96.107,574.165,569.952,0.0
55412.0,STARLINK-5033,PAYLOAD,2024-05-28 13:43:23,14.9833065,0.0002998,69.9996,283.5158,266.2209,93.8607,2.4713e-05,2.02e-06,0.0,0 STARLINK-5033,1 55412U 23014X   24149.57179849  .00000202  00000-0  24713-4 0  9992,2 55412  69.9996 283.5158 0002998 266.2209  93.8607 14.98330650 74186,6950.191,96.107,574.14,569.972,0.0
55412.0,STARLINK-5033,PAYLOAD,2024-05-28 18:31:47,14.98330291,0.0002989,69.9997,283.0112,266.2902,93.7915,1.9726e-05,1.42e-06,0.0,0 STARLINK-5033,1 55412U 23014X   24149.77207879  .00000142  00000-0  19726-4 0  9990,2 55412  69.9997 283.0112 0002989 266.2902  93.7915 14.98330291 74218,6950.192,96.107,574.134,569.98,0.0
55412.0,STARLINK-5033,PAYLOAD,2024-05-29 12:09:16,14.98329956,0.000303,69.9998,281.16,267.591,92.4902,7.6353e-06,-2e-08,0.0,0 STARLINK-5033,1 55412U 23014X   24150.50643894 -.00000002  00000-0  76353-5 0  9990,2 55412  69.9998 281.1600 0003030 267.5910  92.4902 14.98329956 73386,6950.193,96.107,574.164,569.952,0.0
55412.0,STARLINK-5033,PAYLOAD,2024-05-29 13:45:24,14.98330002,0.000303,69.9998,280.9917,267.5619,92.5193,8.1267e-06,4e-08,0.0,0 STARLINK-5033,1 55412U 23014X   24150.57319887  .00000004  00000-0  81267-5 0  9990,2 55412  69.9998 280.9917 0003030 267.5619  92.5193 14.98330002 74333,6950.193,96.107,574.164,569.952,0.0
55412.0,STARLINK-5033,PAYLOAD,2024-05-29 18:33:48,14.9832998,0.0003027,69.9998,280.4866,267.4397,92.6416,7.654e-06,-2e-08,0.0,0 STARLINK-5033,1 55412U 23014X   24150.77347882 -.00000002  00000-0  76540-5 0  9995,2 55412  69.9998 280.4866 0003027 267.4397  92.6416 14.98329980 74364,6950.193,96.107,574.162,569.954,0.0
55412.0,STARLINK-5033,PAYLOAD,2024-05-30 12:11:17,14.98333353,0.000307,69.9999,278.6351,267.0595,93.0212,7.6098e-06,-2e-08,0.0,0 STARLINK-5033,1 55412U 23014X   24151.50783568 -.00000002  00000-0  76098-5 0  9990,2 55412  69.9999 278.6351 0003070 267.0595  93.0212 14.98333353 73533,6950.183,96.107,574.181,569.914,0.0
55412.0,STARLINK-5033,PAYLOAD,2024-05-30 13:47:25,14.98333891,0.0003053,69.9999,278.4669,266.9512,93.1298,1.5804e-05,9.6e-07,0.0,0 STARLINK-5033,1 55412U 23014X   24151.57459496  .00000096  00000-0  15804-4 0  9996,2 55412  69.9999 278.4669 0003053 266.9512  93.1298 14.98333891 74488,6950.181,96.107,574.168,569.924,0.0
55412.0,STARLINK-5033,PAYLOAD,2024-05-30 18:35:49,14.98335287,0.0003045,69.9998,277.9616,267.6431,92.4379,3.2003e-05,2.89e-06,0.0,0 STARLINK-5033,1 55412U 23014X   24151.77487300  .00000289  00000-0  32003-4 0  9997,2 55412  69.9998 277.9616 0003045 267.6431  92.4379 14.98335287 74519,6950.177,96.107,574.158,569.925,0.0
55412.0,STARLINK-5033,PAYLOAD,2024-05-31 12:13:17,14.98329791,0.0002906,70.0001,276.1097,265.6036,94.4791,9.4441e-06,2e-07,0.0,0 STARLINK-5033,1 55412U 23014X   24152.50923577  .00000020  00000-0  94441-5 0  9998,2 55412  70.0001 276.1097 0002906 265.6036  94.4791 14.98329791 73685,6950.194,96.107,574.078,570.039,0.0
55412.0,STARLINK-5033,PAYLOAD,2024-05-31 18:37:50,14.98332043,0.0003082,69.9997,275.4354,270.4696,89.611,1.7933e-05,1.21e-06,0.0,0 STARLINK-5033,1 55412U 23014X   24152.77627397  .00000121  00000-0  17933-4 0  9990,2 55412  69.9997 275.4354 0003082 270.4696  89.6110 14.98332043 74660,6950.187,96.107,574.194,569.91,0.0
55412.0,STARLINK-5033,PAYLOAD,2024-06-01 12:15:18,14.98330843,0.0002995,69.9999,273.584,271.4248,88.6568,-4.5094e-05,-6.31e-06,0.0,0 STARLINK-5033,1 55412U 23014X   24153.51063613 -.00000631  00000-0 -45094-4 0  9995,2 55412  69.9999 273.5840 0002995 271.4248  88.6568 14.98330843 73837,6950.19,96.107,574.137,569.974,0.0
55412.0,STARLINK-5033,PAYLOAD,2024-06-01 13:51:26,14.9833211,0.0002997,69.9999,273.4158,270.939,89.1426,-3.5808e-05,-5.2e-06,0.0,0 STARLINK-5033,1 55412U 23014X   24153.57739494 -.00000520  00000-0 -35808-4 0  9997,2 55412  69.9999 273.4158 0002997 270.9390  89.1426 14.98332110 74785,6950.186,96.107,574.134,569.968,0.0
55412.0,STARLINK-5033,PAYLOAD,2024-06-02 12:17:20,14.98324435,0.0003012,70.0,271.0597,269.9646,90.1168,-6.0052e-05,-8.09e-06,0.0,0 STARLINK-5033,1 55412U 23014X   24154.51204119 -.00000809  00000-0 -60052-4 0  9992,2 55412  70.0000 271.0597 0003012 269.9646  90.1168 14.98324435 73980,6950.21,96.107,574.169,569.982,0.0
55412.0,STARLINK-5033,PAYLOAD,2024-06-02 13:53:28,14.98325652,0.0003,70.0001,270.8914,269.756,90.3255,-4.4894e-05,-6.29e-06,0.0,0 STARLINK-5033,1 55412U 23014X   24154.57880014 -.00000629  00000-0 -44894-4 0  9998,2 55412  70.0001 270.8914 0003000 269.7560  90.3255 14.98325652 74938,6950.206,96.107,574.156,569.986,0.0
55412.0,STARLINK-5033,PAYLOAD,2024-06-03 12:19:20,14.98329301,0.0003074,69.9998,268.5348,270.2635,89.8172,3.1265e-05,2.8e-06,0.0,0 STARLINK-5033,1 55412U 23014X   24155.51343716  .00000280  00000-0  31265-4 0  9995,2 55412  69.9998 268.5348 0003074 270.2635  89.8172 14.98329301 74134,6950.195,96.107,574.197,569.924,0.0
55412.0,STARLINK-5033,PAYLOAD,2024-06-03 13:55:28,14.98332684,0.0003082,69.9998,268.3664,269.7939,90.2866,6.1731e-05,6.44e-06,0.0,0 STARLINK-5033,1 55412U 23014X   24155.58019399  .00000644  00000-0  61731-4 0  9994,2 55412  69.9998 268.3664 0003082 269.7939  90.2866 14.98332684 75081,6950.185,96.107,574.192,569.908,0.0
55412.0,STARLINK-5033,PAYLOAD,2024-06-03 17:07:44,14.98332783,0.000308,69.9998,268.0298,269.86,90.2206,6.1259e-05,6.38e-06,0.0,0 STARLINK-5033,1 55412U 23014X   24155.71371375  .00000638  00000-0  61259-4 0  9992,2 55412  69.9998 268.0298 0003080 269.8600  90.2206 14.98332783 75106,6950.184,96.107,574.19,569.909,0.0
55412.0,STARLINK-5033,PAYLOAD,2024-06-04 13:57:28,14.98342973,0.0003717,69.999,265.8401,273.7245,86.3489,0.00018688,2.138e-05,0.0,0 STARLINK-5033,1 55412U 23014X   24156.58158166  .00002138  00000-0  18688-3 0  9993,2 55412  69.9990 265.8401 0003717 273.7245  86.3489 14.98342973 75230,6950.153,96.106,574.601,569.434,0.0
55412.0,STARLINK-5033,PAYLOAD,2024-06-05 12:23:22,14.98329853,0.0002978,69.999,263.4829,266.0693,94.0125,-3.9173e-05,-5.6e-06,0.0,0 STARLINK-5033,1 55412U 23014X   24157.51623274 -.00000560  00000-0 -39173-4 0  9996,2 55412  69.9990 263.4829 0002978 266.0693  94.0125 14.98329853 74434,6950.193,96.107,574.128,569.989,0.0
